SL-3 R/B                
1 19046U 88032B   22243.91022577  .00000783  00000+0  60301-4 0  9998
2 19046  97.3969 239.5489 0035702 345.2641  14.7541 15.03933325857957
SL-16 R/B               
1 19120U 88039B   22244.43079603 -.00000106  00000+0 -27531-4 0  9997
2 19120  71.0125 265.4035 0020939 156.8494 203.3579 14.19256294776277
COSMOS 1953             
1 19210U 88050A   22244.21053402  .00000845  00000+0  53628-4 0  9999
2 19210  82.5174 347.0785 0009722 235.7510 124.2798 15.07591429864104
SL-8 R/B                
1 19257U 88053B   22244.16498863  .00000086  00000+0  37333-4 0  9993
2 19257  74.0497 319.3410 0019235  98.8823 285.4609 14.37623326792061
COSMOS 1975             
1 19573U 88093A   22244.10908722  .00001752  00000+0  11656-3 0  9992
2 19573  82.5185 303.1953 0012405 299.0101  60.9883 15.06494663845852
SL-14 R/B               
1 19574U 88093B   22243.90119931  .00000205  00000+0  21915-4 0  9998
2 19574  82.5350 166.8017 0020763 329.6799  99.4568 14.83539203831363
SL-16 R/B               
1 19650U 88102B   22244.41293224 -.00000060  00000+0 -63699-5 0  9996
2 19650  71.0023 335.0995 0013929 177.1023 183.0183 14.15841042745230
INTERCOSMOS 24          
1 20261U 89080A   22243.93824349  .00000563  00000+0  16148-3 0  9997
2 20261  82.6010 218.8596 1202105  28.9314 337.3297 12.56454166505135
SL-14 R/B               
1 20262U 89080C   22244.35405247  .00000081  00000+0  23363-4 0  9990
2 20262  82.5905 277.6608 1235181 239.4588 107.8967 12.49092603499162
DELTA 2 R/B(1)          
1 20303U 89085B   22243.70038530  .00012292  00000+0  30057-3 0  9990
2 20303  35.6387 328.9414 0077186 170.1815 190.0442 15.36924047792037
DELTA 1 R/B             
1 20323U 89089B   22244.34070459  .00000116  00000+0  38950-4 0  9996
2 20323  97.0756 273.8280 0070631 214.4592 145.2015 14.48553150730059
ARIANE 40 R/B           
1 20443U 90005H   22244.17919843  .00000098  00000+0  46479-4 0  9993
2 20443  98.4780 311.0158 0011605  99.3950 260.8549 14.38261271708181
DELTA 2 R/B(1)          
1 20453U 90008B   22244.27528905  .00002387  00000+0  12492-3 0  9993
2 20453  35.6234 172.9692 0263888 208.5009 150.1052 14.90407077731222
COSMOS 2058             
1 20465U 90010A   22243.90892001  .00000788  00000+0  62652-4 0  9996
2 20465  82.4881 217.8659 0015459  11.0366 349.1193 14.99040708748932
SL-14 R/B               
1 20466U 90010B   22243.45584040  .00000190  00000+0  21150-4 0  9993
2 20466  82.5033  33.3328 0019697 209.0487 150.9633 14.81577788758974
SL-14 R/B               
1 20511U 90018B   22244.56816049  .00000211  00000+0  24683-4 0  9990
2 20511  82.5263 342.2874 0017270 359.0707  12.0446 14.80231291753457
HST                     
1 20580U 90037B   22243.74878847  .00001417  00000+0  72392-4 0  9999
2 20580  28.4707  29.7907 0002740 123.4159   5.4010 15.10803559577610
SL-16 R/B               
1 20625U 90046B   22243.87852050 -.00000132  00000+0 -43675-4 0  9998
2 20625  70.9995 117.6035 0011873  99.2485 260.9981 14.14704029666528
COSMOS 2084             
1 20663U 90055A   22243.45752632  .00000559  00000+0  63728-4 0  9991
2 20663  62.7938 358.8621 0123741  57.5715 303.7277 14.93071862743504
SL-6 R/B(2)             
1 20666U 90055D   22244.50479858  .00000772  00000+0  79214-4 0  9991
2 20666  62.7822 269.6564 0131903  79.8943 281.7002 14.93403787745084
SL-8 R/B                
1 20775U 90078B   22244.10752579  .00004021  00000+0  18792-3 0  9991
2 20775  82.9213 279.9107 0547713 210.2593 146.5910 14.40623246621403
SL-8 R/B                
1 21088U 91006B   22243.97892529  .00000124  00000+0  10955-3 0  9998
2 21088  82.9413  46.2925 0023366  38.7516  75.4157 13.77209334587352
OKEAN-3                 
1 21397U 91039A   22244.39202773  .00000721  00000+0  65275-4 0  9999
2 21397  82.5220 130.2828 0017501 356.4280   3.6813 14.93848302693594
COSMOS 2151             
1 21422U 91042A   22243.46918431  .00000549  00000+0  50561-4 0  9994
2 21422  82.4979 236.2611 0015562  65.7976 294.4869 14.92774200670878
SL-14 R/B               
1 21423U 91042B   22244.37728719  .00000181  00000+0  20769-4 0  9993
2 21423  82.4971 343.6019 0018637 135.4737 224.7978 14.79975636683896
ERS-1                   
1 21574U 91050A   22243.91836871  .00000065  00000+0  36331-4 0  9990
2 21574  98.7045 213.6929 0033934  55.3704 305.0674 14.37926069630845
ARIANE 40 R/B           
1 21610U 91050F   22244.42999846  .00000092  00000+0  41921-4 0  9991
2 21610  98.3758 312.4435 0003308  20.2781 339.8539 14.41096755634047
INTERCOSMOS 25          
1 21819U 91086A   22244.45669991  .00001109  00000+0  22199-3 0  9994
2 21819  82.6001   3.0835 1512982 353.8344   4.5791 12.05934454341413
SL-8 R/B                
1 21876U 92008B   22244.49132730  .00000053  00000+0  38336-4 0  9990
2 21876  82.9289 143.3217 0035840 122.1593  51.2059 13.75715026532928
SL-8 R/B                
1 21938U 92020B   22243.70462310  .00000111  00000+0  10042-3 0  9994
2 21938  82.9315  28.7124 0027883 287.5377 201.8454 13.75309443524356
COSMOS 2219             
1 22219U 92076A   22243.88206182  .00000289  00000+0  17772-3 0  9993
2 22219  71.0593 185.1216 0017983 359.0176   1.0908 14.13697568536637
SL-16 R/B               
1 22220U 92076B   22244.40305654  .00000148  00000+0  98053-4 0  9994
2 22220  71.0025  14.9695 0015047 256.7611 162.4636 14.16506686540138
COSMOS 2221             
1 22236U 92080A   22244.42641122  .00000786  00000+0  81545-4 0  9997
2 22236  82.5052  61.8343 0016967 160.8737 199.3122 14.88591742610187
SL-16 R/B               
1 22285U 92093B   22243.31048620  .00000219  00000+0  13745-3 0  9993
2 22285  71.0212 183.9440 0002388 125.9096 234.2249 14.15091777531159
COSMOS 2228             
1 22286U 92094A   22244.45656295  .00000809  00000+0  83519-4 0  9996
2 22286  82.5217  18.9955 0019323 283.8384  76.0684 14.88855919605402
SL-16 R/B               
1 22566U 93016B   22243.87942757  .00000197  00000+0  12649-3 0  9993
2 22566  71.0088  35.0482 0008551 127.4077 232.7825 14.15011383520267
COSMOS 2242             
1 22626U 93024A   22243.57676042  .00000563  00000+0  57626-4 0  9999
2 22626  82.5202  48.3017 0017223 287.8704  72.0635 14.88677575588588
SL-16 R/B               
1 22803U 93059B   22244.09615140 -.00000227  00000+0 -88913-4 0  9996
2 22803  70.9895 201.3856 0017094   1.0440 359.0716 14.16873320497679
ARIANE 40 R/B           
1 22830U 93061H   22243.65503726  .00000056  00000+0  37565-4 0  9991
2 22830  98.6577 306.2753 0011997 116.6458 243.5955 14.31578769510025
COSMOS 2278             
1 23087U 94023A   22244.45391397  .00000350  00000+0  20923-3 0  9999
2 23087  71.0563 342.8968 0009467 202.5216 157.5492 14.13879410463361
SL-16 R/B               
1 23088U 94023B   22244.39907457  .00000146  00000+0  10038-3 0  9992
2 23088  70.9979 249.4527 0001055  85.3065 274.8178 14.14722038464569
SL-16 R/B               
1 23343U 94074B   22244.11982664  .00000119  00000+0  23953-4 0  9996
2 23343  97.8862 295.3965 0008224  75.5539 312.4857 14.77076684497545
SL-16 R/B               
1 23405U 94077B   22243.88878278 -.00000283  00000+0 -12096-3 0  9995
2 23405  70.9834 176.8742 0004695 295.8039  64.2599 14.15264181434292
ERS-2                   
1 23560U 95021A   22244.11671079  .00004171  00000+0  15856-3 0  9999
2 23560  98.4977 159.9852 0001774 323.4963  36.6152 15.27483213464890
ARIANE 40+ R/B          
1 23561U 95021B   22244.44121687  .00000097  00000+0  46855-4 0  9998
2 23561  98.6170 302.0276 0007346  29.5529 339.8030 14.38181036434633
SL-16 R/B               
1 23705U 95058B   22243.89972906 -.00000240  00000+0 -99083-4 0  9997
2 23705  71.0251 358.9792 0014963 278.2082  81.7344 14.15181637386225
SL-16 R/B               
1 24298U 96051B   22244.37577368  .00000088  00000+0  74270-4 0  9995
2 24298  70.8233  10.5953 0019223 238.3086 121.6160 14.12428823340414
ORBVIEW 2 (SEASTAR)     
1 24883U 97037A   22243.87636248  .00000108  00000+0  54987-4 0  9993
2 24883  98.6894   7.5212 0001389 228.6732 131.4333 14.33772387324113
SL-16 R/B               
1 25400U 98043G   22244.44193911  .00000019  00000+0  26713-4 0  9993
2 25400  98.6740 179.7410 0010498 142.6312 217.5599 14.25525107256077
SL-16 R/B               
1 25407U 98045B   22244.39133377 -.00000126  00000+0 -39790-4 0  9996
2 25407  71.0134   3.7514 0008020 201.0841 158.9953 14.15866280245420
ISS (ZARYA)             
1 25544U 98067A   22244.54256946  .00006176  00000+0  11609-3 0  9994
2 25544  51.6442 318.3112 0003041 184.5763 307.6157 15.50002873357022
CZ-4B R/B               
1 25732U 99025C   22243.76170972 -.00000016  00000+0  13834-4 0  9996
2 25732  98.8487 284.8572 0038354  72.9139  61.7569 14.17741132205928
OKEAN-O                 
1 25860U 99039A   22243.72184537  .00000180  00000+0  32981-4 0  9996
2 25860  98.1334 284.2126 0001575 111.9243 248.2134 14.77001959244361
SL-16 R/B               
1 25861U 99039B   22244.05363474  .00000147  00000+0  27312-4 0  9998
2 25861  98.1755 272.2917 0016928  90.0716 270.2435 14.78877264246805
DELTA 2 R/B             
1 25876U 99041E   22244.42607925  .00001230  00000+0  24665-3 0  9991
2 25876  51.7664   7.3839 0529747 175.5483 185.0437 14.05189400181927
HELIOS 1B               
1 25977U 99064A   22243.50900249  .00000169  00000+0  28010-4 0  9990
2 25977  98.3196  80.7446 0000118  52.9305 307.1918 14.82843080225704
TERRA                   
1 25994U 99068A   22244.50282510  .00000208  00000+0  56074-4 0  9993
2 25994  98.1318 314.6601 0001446  83.2848  44.3774 14.57144264207691
SL-16 R/B               
1 26070U 00006B   22243.50843309  .00000240  00000+0  14682-3 0  9995
2 26070  71.0005 281.4889 0017507 332.6583  27.3617 14.15494172166535
TITAN 4B R/B            
1 26474U 00047B   22243.47609889  .00000616  00000+0  62653-4 0  9996
2 26474  67.9944  18.6593 0052569  27.7080 332.6845 14.97019969199754
ENVISAT                 
1 27386U 02009A   22244.45140323  .00000086  00000+0  41963-4 0  9993
2 27386  98.1906 222.0195 0001308  83.3256  87.3750 14.38148598 74452
